[{"OBJECT_NAME":"UTMN 2 (RS27S)","OBJECT_ID":"2023-091AP","EPOCH":"2026-03-09T23:09:07.917408","MEAN_MOTION":15.29495965,"ECCENTRICITY":0.00097379,"INCLINATION":97.5194,"RA_OF_ASC_NODE":134.949,"ARG_OF_PERICENTER":76.0788,"MEAN_ANOMALY":284.1534,"EPHEMERIS_TYPE":0,"CLASSIFICATION_TYPE":"U","NORAD_CAT_ID":57203,"ELEMENT_SET_NO":999,"REV_AT_EPOCH":14936,"BSTAR":0.00056135701,"MEAN_MOTION_DOT":0.00016013,"MEAN_MOTION_DDOT":0},{"OBJECT_NAME":"STARLINK-32798","OBJECT_ID":"2025-034A","EPOCH":"2026-03-09T20:24:32.546016","MEAN_MOTION":15.30200436,"ECCENTRICITY":8.224e-5,"INCLINATION":53.1575,"RA_OF_ASC_NODE":270.007,"ARG_OF_PERICENTER":70.6061,"MEAN_ANOMALY":289.5028,"EPHEMERIS_TYPE":0,"CLASSIFICATION_TYPE":"U","NORAD_CAT_ID":63029,"ELEMENT_SET_NO":999,"REV_AT_EPOCH":5893,"BSTAR":0.0010128444,"MEAN_MOTION_DOT":0.00029759,"MEAN_MOTION_DDOT":0}]
